NORAD_CAT_ID,OBJECT_NAME,OBJECT_TYPE,EPOCH,MEAN_MOTION,ECCENTRICITY,INCLINATION,RA_OF_ASC_NODE,ARG_OF_PERICENTER,MEAN_ANOMALY,BSTAR,MEAN_MOTION_DOT,MEAN_MOTION_DDOT,TLE_LINE0,TLE_LINE1,TLE_LINE2,SEMIMAJOR_AXIS,PERIOD,APOGEE,PERIGEE,DECAYED
55303.0,STARLINK-5322,PAYLOAD,2023-08-04 10:48:30,14.98324143,0.000335,69.9994,275.11,267.9442,92.1334,-1.0133e-05,-2.14e-06,0.0,0 STARLINK-5322,1 55303U 23010AL  23216.45034965 -.00000214  00000-0 -10133-4 0  9993,2 55303  69.9994 275.1100 0003350 267.9442  92.1334 14.98324143 30447,6950.211,96.107,574.404,569.748,0.0
55303.0,STARLINK-5322,PAYLOAD,2023-08-05 10:50:30,14.98338475,0.0003457,69.9991,272.5846,272.2882,87.7881,2.8295e-05,2.45e-06,0.0,0 STARLINK-5322,1 55303U 23010AL  23217.45173863  .00000245  00000-0  28295-4 0  9995,2 55303  69.9991 272.5846 0003457 272.2882  87.7881 14.98338475 30593,6950.167,96.106,574.434,569.629,0.0
55303.0,STARLINK-5322,PAYLOAD,2023-08-06 04:27:59,14.9832632,0.0003286,69.9994,270.7331,273.9966,86.0818,4.7505e-05,4.74e-06,0.0,0 STARLINK-5322,1 55303U 23010AL  23218.18610333  .00000474  00000-0  47505-4 0  9993,2 55303  69.9994 270.7331 0003286 273.9966  86.0818 14.98326320 30707,6950.204,96.107,574.353,569.785,0.0
55303.0,STARLINK-5322,PAYLOAD,2023-08-07 09:18:24,14.98332623,0.0003396,69.999,267.7046,265.5184,94.5587,-7.4681e-05,-9.84e-06,0.0,0 STARLINK-5322,1 55303U 23010AL  23219.38778339 -.00000984  00000-0 -74681-4 0  9990,2 55303  69.9990 267.7046 0003396 265.5184  94.5587 14.98332623 30882,6950.185,96.107,574.41,569.689,0.0
55303.0,STARLINK-5322,PAYLOAD,2023-08-08 09:20:25,14.98328537,0.000358,69.9987,265.1787,267.0688,93.0061,8.3812e-05,9.07e-06,0.0,0 STARLINK-5322,1 55303U 23010AL  23220.38918189  .00000907  00000-0  83812-4 0  9990,2 55303  69.9987 265.1787 0003580 267.0688  93.0061 14.98328537 31031,6950.197,96.107,574.551,569.574,0.0
55303.0,STARLINK-5322,PAYLOAD,2023-08-09 09:22:27,14.98319778,0.0003183,69.9992,262.6543,261.5976,98.4822,-3.0745e-05,-4.6e-06,0.0,0 STARLINK-5322,1 55303U 23010AL  23221.39059146 -.00000460  00000-0 -30745-4 0  9994,2 55303  69.9992 262.6543 0003183 261.5976  98.4822 14.98319778 31184,6950.225,96.108,574.302,569.877,0.0
55303.0,STARLINK-5322,PAYLOAD,2023-08-10 02:59:55,14.98321494,0.0003709,69.998,260.8012,268.429,91.6444,0.00015678,1.778e-05,0.0,0 STARLINK-5322,1 55303U 23010AL  23222.12494526  .00001778  00000-0  15678-3 0  9999,2 55303  69.9980 260.8012 0003709 268.4290  91.6444 14.98321494 31296,6950.219,96.108,574.662,569.506,0.0
55303.0,STARLINK-5322,PAYLOAD,2023-08-11 01:25:47,14.98331652,0.0003639,69.9983,258.4447,269.9505,90.1237,4.642e-05,4.61e-06,0.0,0 STARLINK-5322,1 55303U 23010AL  23223.05958069  .00000461  00000-0  46420-4 0  9997,2 55303  69.9983 258.4447 0003639 269.9505  90.1237 14.98331652 31438,6950.188,96.107,574.582,569.524,0.0
55303.0,STARLINK-5322,PAYLOAD,2023-08-12 01:27:48,14.98331334,0.0003546,69.9984,255.9208,265.5774,94.498,-1.4961e-05,-2.72e-06,0.0,0 STARLINK-5322,1 55303U 23010AL  23224.06098095 -.00000272  00000-0 -14961-4 0  9990,2 55303  69.9984 255.9208 0003546 265.5774  94.4980 14.98331334 31588,6950.189,96.107,574.518,569.589,0.0
55303.0,STARLINK-5322,PAYLOAD,2023-08-13 01:29:49,14.98332765,0.0003674,69.998,253.3946,270.3323,89.7415,-1.857e-05,-3.15e-06,0.0,0 STARLINK-5322,1 55303U 23010AL  23225.06237958 -.00000315  00000-0 -18570-4 0  9992,2 55303  69.9980 253.3946 0003674 270.3323  89.7415 14.98332765 31737,6950.184,96.107,574.603,569.496,0.0
55303.0,STARLINK-5322,PAYLOAD,2023-08-14 01:31:50,14.98326914,0.0003701,69.9977,250.8692,269.4072,90.6663,-8.5397e-06,-1.95e-06,0.0,0 STARLINK-5322,1 55303U 23010AL  23226.06378186 -.00000195  00000-0 -85397-5 0  9990,2 55303  69.9977 250.8692 0003701 269.4072  90.6663 14.98326914 31885,6950.202,96.107,574.64,569.495,0.0
55303.0,STARLINK-5322,PAYLOAD,2023-08-15 09:34:31,14.98330744,0.0003725,69.9978,247.5024,268.9512,91.122,7.5018e-06,-4e-08,0.0,0 STARLINK-5322,1 55303U 23010AL  23227.39897973 -.00000004  00000-0  75018-5 0  9994,2 55303  69.9978 247.5024 0003725 268.9512  91.1220 14.98330744 32081,6950.191,96.107,574.645,569.467,0.0
55303.0,STARLINK-5322,PAYLOAD,2023-08-16 09:36:32,14.98330735,0.0003768,69.9978,244.9776,268.8192,91.2535,4.8154e-05,4.82e-06,0.0,0 STARLINK-5322,1 55303U 23010AL  23228.40037793  .00000482  00000-0  48154-4 0  9992,2 55303  69.9978 244.9776 0003768 268.8192  91.2535 14.98330735 32233,6950.191,96.107,574.674,569.437,0.0
55303.0,STARLINK-5322,PAYLOAD,2023-08-17 11:14:41,14.98332048,0.0003722,69.998,242.2842,268.5936,91.4797,2.1828e-05,1.67e-06,0.0,0 STARLINK-5322,1 55303U 23010AL  23229.46853669  .00000167  00000-0  21828-4 0  9996,2 55303  69.9980 242.2842 0003722 268.5936  91.4797 14.98332048 32392,6950.187,96.107,574.638,569.465,0.0
55303.0,STARLINK-5322,PAYLOAD,2023-08-18 17:41:14,14.98330788,0.0003613,69.9983,239.0863,269.3717,90.7028,-5.1581e-06,-1.55e-06,0.0,0 STARLINK-5322,1 55303U 23010AL  23230.73697683 -.00000155  00000-0 -51581-5 0  9999,2 55303  69.9983 239.0863 0003613 269.3717  90.7028 14.98330788 32586,6950.19,96.107,574.567,569.544,0.0
55303.0,STARLINK-5322,PAYLOAD,2023-08-20 03:20:05,14.98320277,0.0003555,69.9983,235.552,263.5224,96.553,-8.5467e-05,-1.112e-05,0.0,0 STARLINK-5322,1 55303U 23010AL  23232.13894730 -.00001112  00000-0 -85467-4 0  9990,2 55303  69.9983 235.5520 0003555 263.5224  96.5530 14.98320277 32798,6950.223,96.108,574.559,569.617,0.0
55303.0,STARLINK-5322,PAYLOAD,2023-08-20 09:44:38,14.983109,0.0003733,69.9981,234.8782,269.4603,90.6128,-0.00018115,-2.253e-05,0.0,0 STARLINK-5322,1 55303U 23010AL  23232.40599861 -.00002253  00000-0 -18115-3 0  9999,2 55303  69.9981 234.8782 0003733 269.4603  90.6128 14.98310900 32837,6950.252,96.108,574.711,569.522,0.0
55303.0,STARLINK-5322,PAYLOAD,2023-08-21 03:22:06,14.98324656,0.0003536,69.998,233.0265,260.2235,99.8525,-3.165e-06,-1.31e-06,0.0,0 STARLINK-5322,1 55303U 23010AL  23233.14035078 -.00000131  00000-0 -31650-5 0  9990,2 55303  69.9980 233.0265 0003536 260.2235  99.8525 14.98324656 32941,6950.209,96.107,574.532,569.617,0.0
55303.0,STARLINK-5322,PAYLOAD,2023-08-22 05:00:15,14.98318699,0.0003781,69.9982,230.3335,266.9426,93.1301,0.00018195,2.078e-05,0.0,0 STARLINK-5322,1 55303U 23010AL  23234.20851580  .00002078  00000-0  18195-3 0  9999,2 55303  69.9982 230.3335 0003781 266.9426  93.1301 14.98318699 33106,6950.228,96.108,574.721,569.465,0.0
55303.0,STARLINK-5322,PAYLOAD,2023-08-23 01:50:00,14.98334658,0.0003827,69.9982,228.1454,266.375,93.6972,4.5177e-05,4.46e-06,0.0,0 STARLINK-5322,1 55303U 23010AL  23235.07639321  .00000446  00000-0  45177-4 0  9990,2 55303  69.9982 228.1454 0003827 266.3750  93.6972 14.98334658 33234,6950.178,96.107,574.703,569.384,0.0
55303.0,STARLINK-5322,PAYLOAD,2023-08-23 08:14:34,14.98248555,0.0003414,69.9982,227.472,271.4085,88.6683,0.0015475,0.00018382,0.0,0 STARLINK-5322,1 55303U 23010AL  23235.34345109  .00018382  00000-0  15475-2 0  9992,2 55303  69.9982 227.4720 0003414 271.4085  88.6683 14.98248555 33279,6950.445,96.112,574.683,569.937,0.0
55303.0,STARLINK-5322,PAYLOAD,2023-08-24 22:41:44,14.98341751,0.0003662,69.9987,223.4323,262.1993,97.875,4.4668e-05,4.4e-06,0.0,0 STARLINK-5322,1 55303U 23010AL  23236.94565882  .00000440  00000-0  44668-4 0  9995,2 55303  69.9987 223.4323 0003662 262.1993  97.8750 14.98341751 33818,6950.157,96.106,574.567,569.476,0.0
55303.0,STARLINK-5322,PAYLOAD,2023-08-25 01:54:00,14.98341493,0.0003655,69.9988,223.0956,263.3436,96.7307,4.0233e-05,3.87e-06,0.0,0 STARLINK-5322,1 55303U 23010AL  23237.07917811  .00000387  00000-0  40233-4 0  9997,2 55303  69.9988 223.0956 0003655 263.3436  96.7307 14.98341493 33532,6950.157,96.106,574.563,569.482,0.0
55303.0,STARLINK-5322,PAYLOAD,2023-08-25 09:54:41,14.98342205,0.0003628,69.9988,222.254,263.0762,96.9984,4.4394e-05,4.37e-06,0.0,0 STARLINK-5322,1 55303U 23010AL  23237.41297478  .00000437  00000-0  44394-4 0  9993,2 55303  69.9988 222.2540 0003628 263.0762  96.9984 14.98342205 33884,6950.155,96.106,574.542,569.499,0.0
55303.0,STARLINK-5322,PAYLOAD,2023-08-26 08:20:33,14.98337402,0.0003571,69.9989,219.897,264.7879,95.2873,-5.2201e-05,-7.16e-06,0.0,0 STARLINK-5322,1 55303U 23010AL  23238.34761440 -.00000716  00000-0 -52201-4 0  9999,2 55303  69.9989 219.8970 0003571 264.7879  95.2873 14.98337402 33723,6950.17,96.107,574.517,569.553,0.0
55303.0,STARLINK-5322,PAYLOAD,2023-08-26 11:32:49,14.98339424,0.000361,69.9988,219.5598,265.7165,94.3582,-2.3891e-05,-3.78e-06,0.0,0 STARLINK-5322,1 55303U 23010AL  23238.48113159 -.00000378  00000-0 -23891-4 0  9999,2 55303  69.9988 219.5598 0003610 265.7165  94.3582 14.98339424 34047,6950.164,96.106,574.538,569.52,0.0
55303.0,STARLINK-5322,PAYLOAD,2023-08-27 08:22:34,14.98332917,0.0003499,69.9991,217.3729,265.8826,94.1933,-7.1768e-05,-9.49e-06,0.0,0 STARLINK-5322,1 55303U 23010AL  23239.34901438 -.00000949  00000-0 -71768-4 0  9990,2 55303  69.9991 217.3729 0003499 265.8826  94.1933 14.98332917 33871,6950.184,96.107,574.481,569.617,0.0
55303.0,STARLINK-5322,PAYLOAD,2023-08-27 09:58:42,14.98333414,0.0003535,69.9991,217.2048,266.2904,93.7851,-6.1909e-05,-8.32e-06,0.0,0 STARLINK-5322,1 55303U 23010AL  23239.41577371 -.00000832  00000-0 -61909-4 0  9990,2 55303  69.9991 217.2048 0003535 266.2904  93.7851 14.98333414 34189,6950.182,96.107,574.504,569.59,0.0
55303.0,STARLINK-5322,PAYLOAD,2023-08-28 08:24:35,14.9833047,0.0003574,69.9992,214.8481,266.7671,93.3079,1.2339e-05,5.4e-07,0.0,0 STARLINK-5322,1 55303U 23010AL  23240.35041242  .00000054  00000-0  12339-4 0  9995,2 55303  69.9992 214.8481 0003574 266.7671  93.3079 14.98330470 34023,6950.191,96.107,574.54,569.572,0.0
55303.0,STARLINK-5322,PAYLOAD,2023-08-28 21:13:40,14.98330077,0.000358,69.999,213.5012,266.5303,93.5447,5.2959e-05,5.39e-06,0.0,0 STARLINK-5322,1 55303U 23010AL  23240.88449084  .00000539  00000-0  52959-4 0  9999,2 55303  69.9990 213.5012 0003580 266.5303  93.5447 14.98330077 34400,6950.193,96.107,574.546,569.569,0.0
